<kml xmlns="http://www.opengis.net/kml/2.2">
<Document>
<name>Flight Trajectories to LEBL</name>
    
                            <Placemark>
                                <name>ECMKN (LGSR to LEBL)</name>
                                <Style>
                                    <LineStyle>
                                        <color>ffffc9e1</color>
                                        <width>3</width>
                                    </LineStyle>
                                </Style>
                                <LineString>
                                    <tessellate>1</tessellate>
                                    <altitudeMode>clampToGround</altitudeMode>
                                    <coordinates>
                                        25.479166666666664,36.399166666666666,0 2.0783333333333336,41.29694444444444,0
                                    </coordinates>
                                </LineString>
                            </Placemark>
                                    
                            <Placemark>
                                <name>N761AJ (KJFK to LEBL)</name>
                                <Style>
                                    <LineStyle>
                                        <color>ffc9ffcc</color>
                                        <width>3</width>
                                    </LineStyle>
                                </Style>
                                <LineString>
                                    <tessellate>1</tessellate>
                                    <altitudeMode>clampToGround</altitudeMode>
                                    <coordinates>
                                        -73.77833333333334,40.640277777777776,0 2.0783333333333336,41.29694444444444,0
                                    </coordinates>
                                </LineString>
                            </Placemark>
                                    
                            <Placemark>
                                <name>ECMAI (BIKF to LEBL)</name>
                                <Style>
                                    <LineStyle>
                                        <color>ffffc9e1</color>
                                        <width>3</width>
                                    </LineStyle>
                                </Style>
                                <LineString>
                                    <tessellate>1</tessellate>
                                    <altitudeMode>clampToGround</altitudeMode>
                                    <coordinates>
                                        -22.605555555555558,63.985,0 2.0783333333333336,41.29694444444444,0
                                    </coordinates>
                                </LineString>
                            </Placemark>
                                    
                            <Placemark>
                                <name>ECLZZ (URKK to LEBL)</name>
                                <Style>
                                    <LineStyle>
                                        <color>ffc9ffcc</color>
                                        <width>3</width>
                                    </LineStyle>
                                </Style>
                                <LineString>
                                    <tessellate>1</tessellate>
                                    <altitudeMode>clampToGround</altitudeMode>
                                    <coordinates>
                                        39.169999999999995,45.03472222222222,0 2.0783333333333336,41.29694444444444,0
                                    </coordinates>
                                </LineString>
                            </Placemark>
                                    
                            <Placemark>
                                <name>VQBTN (UUEE to LEBL)</name>
                                <Style>
                                    <LineStyle>
                                        <color>ffc9ffcc</color>
                                        <width>3</width>
                                    </LineStyle>
                                </Style>
                                <LineString>
                                    <tessellate>1</tessellate>
                                    <altitudeMode>clampToGround</altitudeMode>
                                    <coordinates>
                                        37.41305555555555,55.972500000000004,0 2.0783333333333336,41.29694444444444,0
                                    </coordinates>
                                </LineString>
                            </Placemark>
                                    
                            <Placemark>
                                <name>OHLZD (EFHK to LEBL)</name>
                                <Style>
                                    <LineStyle>
                                        <color>ffffc9e1</color>
                                        <width>3</width>
                                    </LineStyle>
                                </Style>
                                <LineString>
                                    <tessellate>1</tessellate>
                                    <altitudeMode>clampToGround</altitudeMode>
                                    <coordinates>
                                        24.96333333333333,60.31722222222223,0 2.0783333333333336,41.29694444444444,0
                                    </coordinates>
                                </LineString>
                            </Placemark>
                                    
                            <Placemark>
                                <name>N823NW (KATL to LEBL)</name>
                                <Style>
                                    <LineStyle>
                                        <color>ffc9ffcc</color>
                                        <width>3</width>
                                    </LineStyle>
                                </Style>
                                <LineString>
                                    <tessellate>1</tessellate>
                                    <altitudeMode>clampToGround</altitudeMode>
                                    <coordinates>
                                        -84.43333333333334,33.63333333333333,0 2.0783333333333336,41.29694444444444,0
                                    </coordinates>
                                </LineString>
                            </Placemark>
                                    
                            <Placemark>
                                <name>ECMEA (ULLI to LEBL)</name>
                                <Style>
                                    <LineStyle>
                                        <color>ffc9ffcc</color>
                                        <width>3</width>
                                    </LineStyle>
                                </Style>
                                <LineString>
                                    <tessellate>1</tessellate>
                                    <altitudeMode>clampToGround</altitudeMode>
                                    <coordinates>
                                        30.2625,59.80027777777777,0 2.0783333333333336,41.29694444444444,0
                                    </coordinates>
                                </LineString>
                            </Placemark>
                                    
                            <Placemark>
                                <name>ECLZN (LGMK to LEBL)</name>
                                <Style>
                                    <LineStyle>
                                        <color>ffffc9e1</color>
                                        <width>3</width>
                                    </LineStyle>
                                </Style>
                                <LineString>
                                    <tessellate>1</tessellate>
                                    <altitudeMode>clampToGround</altitudeMode>
                                    <coordinates>
                                        25.34722222222222,37.43722222222222,0 2.0783333333333336,41.29694444444444,0
                                    </coordinates>
                                </LineString>
                            </Placemark>
                                    
                            <Placemark>
                                <name>ECMGE (UUDD to LEBL)</name>
                                <Style>
                                    <LineStyle>
                                        <color>ffc9ffcc</color>
                                        <width>3</width>
                                    </LineStyle>
                                </Style>
                                <LineString>
                                    <tessellate>1</tessellate>
                                    <altitudeMode>clampToGround</altitudeMode>
                                    <coordinates>
                                        37.906388888888884,55.40861111111111,0 2.0783333333333336,41.29694444444444,0
                                    </coordinates>
                                </LineString>
                            </Placemark>
                                    
                            <Placemark>
                                <name>ECMEQ (OLBA to LEBL)</name>
                                <Style>
                                    <LineStyle>
                                        <color>ffc9ffcc</color>
                                        <width>3</width>
                                    </LineStyle>
                                </Style>
                                <LineString>
                                    <tessellate>1</tessellate>
                                    <altitudeMode>clampToGround</altitudeMode>
                                    <coordinates>
                                        35.49,33.81916666666667,0 2.0783333333333336,41.29694444444444,0
                                    </coordinates>
                                </LineString>
                            </Placemark>
                                    
                            <Placemark>
                                <name>N76054 (KEWR to LEBL)</name>
                                <Style>
                                    <LineStyle>
                                        <color>ffc9ffcc</color>
                                        <width>3</width>
                                    </LineStyle>
                                </Style>
                                <LineString>
                                    <tessellate>1</tessellate>
                                    <altitudeMode>clampToGround</altitudeMode>
                                    <coordinates>
                                        -74.16833333333334,40.696666666666665,0 2.0783333333333336,41.29694444444444,0
                                    </coordinates>
                                </LineString>
                            </Placemark>
                                    
                            <Placemark>
                                <name>9VSWD (SBGR to LEBL)</name>
                                <Style>
                                    <LineStyle>
                                        <color>ffc9ffcc</color>
                                        <width>3</width>
                                    </LineStyle>
                                </Style>
                                <LineString>
                                    <tessellate>1</tessellate>
                                    <altitudeMode>clampToGround</altitudeMode>
                                    <coordinates>
                                        -46.47,-23.433333333333334,0 2.0783333333333336,41.29694444444444,0
                                    </coordinates>
                                </LineString>
                            </Placemark>
                                    
                            <Placemark>
                                <name>TCJNZ (LTBA to LEBL)</name>
                                <Style>
                                    <LineStyle>
                                        <color>ffc9ffcc</color>
                                        <width>3</width>
                                    </LineStyle>
                                </Style>
                                <LineString>
                                    <tessellate>1</tessellate>
                                    <altitudeMode>clampToGround</altitudeMode>
                                    <coordinates>
                                        28.81416666666667,40.976111111111116,0 2.0783333333333336,41.29694444444444,0
                                    </coordinates>
                                </LineString>
                            </Placemark>
                                    
                            <Placemark>
                                <name>CGHLQ (CYUL to LEBL)</name>
                                <Style>
                                    <LineStyle>
                                        <color>ffc9ffcc</color>
                                        <width>3</width>
                                    </LineStyle>
                                </Style>
                                <LineString>
                                    <tessellate>1</tessellate>
                                    <altitudeMode>clampToGround</altitudeMode>
                                    <coordinates>
                                        -73.74138888888889,45.46805555555556,0 2.0783333333333336,41.29694444444444,0
                                    </coordinates>
                                </LineString>
                            </Placemark>
                                    
                            <Placemark>
                                <name>ECMBK (UWKD to LEBL)</name>
                                <Style>
                                    <LineStyle>
                                        <color>ffc9ffcc</color>
                                        <width>3</width>
                                    </LineStyle>
                                </Style>
                                <LineString>
                                    <tessellate>1</tessellate>
                                    <altitudeMode>clampToGround</altitudeMode>
                                    <coordinates>
                                        49.280277777777776,55.606944444444444,0 2.0783333333333336,41.29694444444444,0
                                    </coordinates>
                                </LineString>
                            </Placemark>
                                    
                            <Placemark>
                                <name>ECLUT (LLBG to LEBL)</name>
                                <Style>
                                    <LineStyle>
                                        <color>ffc9ffcc</color>
                                        <width>3</width>
                                    </LineStyle>
                                </Style>
                                <LineString>
                                    <tessellate>1</tessellate>
                                    <altitudeMode>clampToGround</altitudeMode>
                                    <coordinates>
                                        34.885555555555555,32.00944444444445,0 2.0783333333333336,41.29694444444444,0
                                    </coordinates>
                                </LineString>
                            </Placemark>
                                    
                            <Placemark>
                                <name>N790AN (KMIA to LEBL)</name>
                                <Style>
                                    <LineStyle>
                                        <color>ffc9ffcc</color>
                                        <width>3</width>
                                    </LineStyle>
                                </Style>
                                <LineString>
                                    <tessellate>1</tessellate>
                                    <altitudeMode>clampToGround</altitudeMode>
                                    <coordinates>
                                        -80.28333333333333,25.8,0 2.0783333333333336,41.29694444444444,0
                                    </coordinates>
                                </LineString>
                            </Placemark>
                                    
                            <Placemark>
                                <name>ECMMU (GCLP to LEBL)</name>
                                <Style>
                                    <LineStyle>
                                        <color>ffc9ffcc</color>
                                        <width>3</width>
                                    </LineStyle>
                                </Style>
                                <LineString>
                                    <tessellate>1</tessellate>
                                    <altitudeMode>clampToGround</altitudeMode>
                                    <coordinates>
                                        -15.386666666666667,27.931944444444447,0 2.0783333333333336,41.29694444444444,0
                                    </coordinates>
                                </LineString>
                            </Placemark>
                                    
                            <Placemark>
                                <name>LNRNO (ENGM to LEBL)</name>
                                <Style>
                                    <LineStyle>
                                        <color>ffffc9e1</color>
                                        <width>3</width>
                                    </LineStyle>
                                </Style>
                                <LineString>
                                    <tessellate>1</tessellate>
                                    <altitudeMode>clampToGround</altitudeMode>
                                    <coordinates>
                                        11.08388888888889,60.20277777777778,0 2.0783333333333336,41.29694444444444,0
                                    </coordinates>
                                </LineString>
                            </Placemark>
                                    
                            <Placemark>
                                <name>N290AY (KPHL to LEBL)</name>
                                <Style>
                                    <LineStyle>
                                        <color>ffc9ffcc</color>
                                        <width>3</width>
                                    </LineStyle>
                                </Style>
                                <LineString>
                                    <tessellate>1</tessellate>
                                    <altitudeMode>clampToGround</altitudeMode>
                                    <coordinates>
                                        -75.245,39.87,0 2.0783333333333336,41.29694444444444,0
                                    </coordinates>
                                </LineString>
                            </Placemark>
                                    
                            <Placemark>
                                <name>VQBHK (UUEE to LEBL)</name>
                                <Style>
                                    <LineStyle>
                                        <color>ffc9ffcc</color>
                                        <width>3</width>
                                    </LineStyle>
                                </Style>
                                <LineString>
                                    <tessellate>1</tessellate>
                                    <altitudeMode>clampToGround</altitudeMode>
                                    <coordinates>
                                        37.41305555555555,55.972500000000004,0 2.0783333333333336,41.29694444444444,0
                                    </coordinates>
                                </LineString>
                            </Placemark>
                                    
                            <Placemark>
                                <name>ECMMH (GCXO to LEBL)</name>
                                <Style>
                                    <LineStyle>
                                        <color>ffc9ffcc</color>
                                        <width>3</width>
                                    </LineStyle>
                                </Style>
                                <LineString>
                                    <tessellate>1</tessellate>
                                    <altitudeMode>clampToGround</altitudeMode>
                                    <coordinates>
                                        -16.341666666666665,28.482777777777777,0 2.0783333333333336,41.29694444444444,0
                                    </coordinates>
                                </LineString>
                            </Placemark>
                                    
                            <Placemark>
                                <name>VPBWG (ULLI to LEBL)</name>
                                <Style>
                                    <LineStyle>
                                        <color>ffc9ffcc</color>
                                        <width>3</width>
                                    </LineStyle>
                                </Style>
                                <LineString>
                                    <tessellate>1</tessellate>
                                    <altitudeMode>clampToGround</altitudeMode>
                                    <coordinates>
                                        30.2625,59.80027777777777,0 2.0783333333333336,41.29694444444444,0
                                    </coordinates>
                                </LineString>
                            </Placemark>
                                    
                            <Placemark>
                                <name>LNNGP (ENGM to LEBL)</name>
                                <Style>
                                    <LineStyle>
                                        <color>ffffc9e1</color>
                                        <width>3</width>
                                    </LineStyle>
                                </Style>
                                <LineString>
                                    <tessellate>1</tessellate>
                                    <altitudeMode>clampToGround</altitudeMode>
                                    <coordinates>
                                        11.08388888888889,60.20277777777778,0 2.0783333333333336,41.29694444444444,0
                                    </coordinates>
                                </LineString>
                            </Placemark>
                                    
                            <Placemark>
                                <name>N900JG (LLBG to LEBL)</name>
                                <Style>
                                    <LineStyle>
                                        <color>ffc9ffcc</color>
                                        <width>3</width>
                                    </LineStyle>
                                </Style>
                                <LineString>
                                    <tessellate>1</tessellate>
                                    <altitudeMode>clampToGround</altitudeMode>
                                    <coordinates>
                                        34.885555555555555,32.00944444444445,0 2.0783333333333336,41.29694444444444,0
                                    </coordinates>
                                </LineString>
                            </Placemark>
                                    
                            <Placemark>
                                <name>CFIYE (CYYZ to LEBL)</name>
                                <Style>
                                    <LineStyle>
                                        <color>ffc9ffcc</color>
                                        <width>3</width>
                                    </LineStyle>
                                </Style>
                                <LineString>
                                    <tessellate>1</tessellate>
                                    <altitudeMode>clampToGround</altitudeMode>
                                    <coordinates>
                                        -79.63055555555555,43.67722222222222,0 2.0783333333333336,41.29694444444444,0
                                    </coordinates>
                                </LineString>
                            </Placemark>
                                    
                            <Placemark>
                                <name>ECLQK (LLBG to LEBL)</name>
                                <Style>
                                    <LineStyle>
                                        <color>ffc9ffcc</color>
                                        <width>3</width>
                                    </LineStyle>
                                </Style>
                                <LineString>
                                    <tessellate>1</tessellate>
                                    <altitudeMode>clampToGround</altitudeMode>
                                    <coordinates>
                                        34.885555555555555,32.00944444444445,0 2.0783333333333336,41.29694444444444,0
                                    </coordinates>
                                </LineString>
                            </Placemark>
                                    
                            <Placemark>
                                <name>N803NW (KJFK to LEBL)</name>
                                <Style>
                                    <LineStyle>
                                        <color>ffc9ffcc</color>
                                        <width>3</width>
                                    </LineStyle>
                                </Style>
                                <LineString>
                                    <tessellate>1</tessellate>
                                    <altitudeMode>clampToGround</altitudeMode>
                                    <coordinates>
                                        -73.77833333333334,40.640277777777776,0 2.0783333333333336,41.29694444444444,0
                                    </coordinates>
                                </LineString>
                            </Placemark>
                                    
                            <Placemark>
                                <name>N283AY (KCLT to LEBL)</name>
                                <Style>
                                    <LineStyle>
                                        <color>ffc9ffcc</color>
                                        <width>3</width>
                                    </LineStyle>
                                </Style>
                                <LineString>
                                    <tessellate>1</tessellate>
                                    <altitudeMode>clampToGround</altitudeMode>
                                    <coordinates>
                                        -80.95,35.21666666666667,0 2.0783333333333336,41.29694444444444,0
                                    </coordinates>
                                </LineString>
                            </Placemark>
                                    
                            <Placemark>
                                <name>CFDAT (CYUL to LEBL)</name>
                                <Style>
                                    <LineStyle>
                                        <color>ffc9ffcc</color>
                                        <width>3</width>
                                    </LineStyle>
                                </Style>
                                <LineString>
                                    <tessellate>1</tessellate>
                                    <altitudeMode>clampToGround</altitudeMode>
                                    <coordinates>
                                        -73.74138888888889,45.46805555555556,0 2.0783333333333336,41.29694444444444,0
                                    </coordinates>
                                </LineString>
                            </Placemark>
                                    
                            <Placemark>
                                <name>CGTSW (CYYZ to LEBL)</name>
                                <Style>
                                    <LineStyle>
                                        <color>ffc9ffcc</color>
                                        <width>3</width>
                                    </LineStyle>
                                </Style>
                                <LineString>
                                    <tessellate>1</tessellate>
                                    <altitudeMode>clampToGround</altitudeMode>
                                    <coordinates>
                                        -79.63055555555555,43.67722222222222,0 2.0783333333333336,41.29694444444444,0
                                    </coordinates>
                                </LineString>
                            </Placemark>
                                    
                            <Placemark>
                                <name>N76062 (KIAD to LEBL)</name>
                                <Style>
                                    <LineStyle>
                                        <color>ffc9ffcc</color>
                                        <width>3</width>
                                    </LineStyle>
                                </Style>
                                <LineString>
                                    <tessellate>1</tessellate>
                                    <altitudeMode>clampToGround</altitudeMode>
                                    <coordinates>
                                        -77.45666666666666,38.94499999999999,0 2.0783333333333336,41.29694444444444,0
                                    </coordinates>
                                </LineString>
                            </Placemark>
                                    
                            <Placemark>
                                <name>URPSS (UKBB to LEBL)</name>
                                <Style>
                                    <LineStyle>
                                        <color>ffc9ffcc</color>
                                        <width>3</width>
                                    </LineStyle>
                                </Style>
                                <LineString>
                                    <tessellate>1</tessellate>
                                    <altitudeMode>clampToGround</altitudeMode>
                                    <coordinates>
                                        30.893333333333334,50.344722222222224,0 2.0783333333333336,41.29694444444444,0
                                    </coordinates>
                                </LineString>
                            </Placemark>
                                    
                            <Placemark>
                                <name>4XELD (LLBG to LEBL)</name>
                                <Style>
                                    <LineStyle>
                                        <color>ffc9ffcc</color>
                                        <width>3</width>
                                    </LineStyle>
                                </Style>
                                <LineString>
                                    <tessellate>1</tessellate>
                                    <altitudeMode>clampToGround</altitudeMode>
                                    <coordinates>
                                        34.885555555555555,32.00944444444445,0 2.0783333333333336,41.29694444444444,0
                                    </coordinates>
                                </LineString>
                            </Placemark>
                                    
                            <Placemark>
                                <name>TCJVM (LTFJ to LEBL)</name>
                                <Style>
                                    <LineStyle>
                                        <color>ffc9ffcc</color>
                                        <width>3</width>
                                    </LineStyle>
                                </Style>
                                <LineString>
                                    <tessellate>1</tessellate>
                                    <altitudeMode>clampToGround</altitudeMode>
                                    <coordinates>
                                        29.309166666666666,40.89833333333333,0 2.0783333333333336,41.29694444444444,0
                                    </coordinates>
                                </LineString>
                            </Placemark>
                                    
                            <Placemark>
                                <name>URPSO (UKBB to LEBL)</name>
                                <Style>
                                    <LineStyle>
                                        <color>ffc9ffcc</color>
                                        <width>3</width>
                                    </LineStyle>
                                </Style>
                                <LineString>
                                    <tessellate>1</tessellate>
                                    <altitudeMode>clampToGround</altitudeMode>
                                    <coordinates>
                                        30.893333333333334,50.344722222222224,0 2.0783333333333336,41.29694444444444,0
                                    </coordinates>
                                </LineString>
                            </Placemark>
                                    
                            <Placemark>
                                <name>A7AEC (OTHH to LEBL)</name>
                                <Style>
                                    <LineStyle>
                                        <color>ffc9ffcc</color>
                                        <width>3</width>
                                    </LineStyle>
                                </Style>
                                <LineString>
                                    <tessellate>1</tessellate>
                                    <altitudeMode>clampToGround</altitudeMode>
                                    <coordinates>
                                        51.608333333333334,25.274444444444445,0 2.0783333333333336,41.29694444444444,0
                                    </coordinates>
                                </LineString>
                            </Placemark>
                                    
                            <Placemark>
                                <name>A6EOP (OMDB to LEBL)</name>
                                <Style>
                                    <LineStyle>
                                        <color>ffc9ffcc</color>
                                        <width>3</width>
                                    </LineStyle>
                                </Style>
                                <LineString>
                                    <tessellate>1</tessellate>
                                    <altitudeMode>clampToGround</altitudeMode>
                                    <coordinates>
                                        55.36,25.249166666666667,0 2.0783333333333336,41.29694444444444,0
                                    </coordinates>
                                </LineString>
                            </Placemark>
                                    
                            <Placemark>
                                <name>TCJHZ (LTBA to LEBL)</name>
                                <Style>
                                    <LineStyle>
                                        <color>ffc9ffcc</color>
                                        <width>3</width>
                                    </LineStyle>
                                </Style>
                                <LineString>
                                    <tessellate>1</tessellate>
                                    <altitudeMode>clampToGround</altitudeMode>
                                    <coordinates>
                                        28.81416666666667,40.976111111111116,0 2.0783333333333336,41.29694444444444,0
                                    </coordinates>
                                </LineString>
                            </Placemark>
                                    
                            <Placemark>
                                <name>EIDHT (EYVI to LEBL)</name>
                                <Style>
                                    <LineStyle>
                                        <color>ffffc9e1</color>
                                        <width>3</width>
                                    </LineStyle>
                                </Style>
                                <LineString>
                                    <tessellate>1</tessellate>
                                    <altitudeMode>clampToGround</altitudeMode>
                                    <coordinates>
                                        25.28777777777778,54.636944444444445,0 2.0783333333333336,41.29694444444444,0
                                    </coordinates>
                                </LineString>
                            </Placemark>
                                    
                            <Placemark>
                                <name>TCCPG (LTFJ to LEBL)</name>
                                <Style>
                                    <LineStyle>
                                        <color>ffc9ffcc</color>
                                        <width>3</width>
                                    </LineStyle>
                                </Style>
                                <LineString>
                                    <tessellate>1</tessellate>
                                    <altitudeMode>clampToGround</altitudeMode>
                                    <coordinates>
                                        29.309166666666666,40.89833333333333,0 2.0783333333333336,41.29694444444444,0
                                    </coordinates>
                                </LineString>
                            </Placemark>
                                    
                            <Placemark>
                                <name>SUGCE (HECA to LEBL)</name>
                                <Style>
                                    <LineStyle>
                                        <color>ffc9ffcc</color>
                                        <width>3</width>
                                    </LineStyle>
                                </Style>
                                <LineString>
                                    <tessellate>1</tessellate>
                                    <altitudeMode>clampToGround</altitudeMode>
                                    <coordinates>
                                        31.413888888888888,30.11138888888889,0 2.0783333333333336,41.29694444444444,0
                                    </coordinates>
                                </LineString>
                            </Placemark>
                                    
                            <Placemark>
                                <name>N969AV (SKBO to LEBL)</name>
                                <Style>
                                    <LineStyle>
                                        <color>ffc9ffcc</color>
                                        <width>3</width>
                                    </LineStyle>
                                </Style>
                                <LineString>
                                    <tessellate>1</tessellate>
                                    <altitudeMode>clampToGround</altitudeMode>
                                    <coordinates>
                                        -74.15,4.7,0 2.0783333333333336,41.29694444444444,0
                                    </coordinates>
                                </LineString>
                            </Placemark>
                                    
                            <Placemark>
                                <name>EIFJL (ENBR to LEBL)</name>
                                <Style>
                                    <LineStyle>
                                        <color>ffffc9e1</color>
                                        <width>3</width>
                                    </LineStyle>
                                </Style>
                                <LineString>
                                    <tessellate>1</tessellate>
                                    <altitudeMode>clampToGround</altitudeMode>
                                    <coordinates>
                                        5.218055555555556,60.29361111111111,0 2.0783333333333336,41.29694444444444,0
                                    </coordinates>
                                </LineString>
                            </Placemark>
                                    
                            <Placemark>
                                <name>EIFJM (ESSA to LEBL)</name>
                                <Style>
                                    <LineStyle>
                                        <color>ffffc9e1</color>
                                        <width>3</width>
                                    </LineStyle>
                                </Style>
                                <LineString>
                                    <tessellate>1</tessellate>
                                    <altitudeMode>clampToGround</altitudeMode>
                                    <coordinates>
                                        17.91861111111111,59.651944444444446,0 2.0783333333333336,41.29694444444444,0
                                    </coordinates>
                                </LineString>
                            </Placemark>
                                    
                            <Placemark>
                                <name>OYRUP (GCXO to LEBL)</name>
                                <Style>
                                    <LineStyle>
                                        <color>ffc9ffcc</color>
                                        <width>3</width>
                                    </LineStyle>
                                </Style>
                                <LineString>
                                    <tessellate>1</tessellate>
                                    <altitudeMode>clampToGround</altitudeMode>
                                    <coordinates>
                                        -16.341666666666665,28.482777777777777,0 2.0783333333333336,41.29694444444444,0
                                    </coordinates>
                                </LineString>
                            </Placemark>
                                    
                            <Placemark>
                                <name>LVCSX (SAEZ to LEBL)</name>
                                <Style>
                                    <LineStyle>
                                        <color>ffc9ffcc</color>
                                        <width>3</width>
                                    </LineStyle>
                                </Style>
                                <LineString>
                                    <tessellate>1</tessellate>
                                    <altitudeMode>clampToGround</altitudeMode>
                                    <coordinates>
                                        -58.53583333333333,-34.82222222222222,0 2.0783333333333336,41.29694444444444,0
                                    </coordinates>
                                </LineString>
                            </Placemark>
                                    
                            <Placemark>
                                <name>VQBBG (UUEE to LEBL)</name>
                                <Style>
                                    <LineStyle>
                                        <color>ffc9ffcc</color>
                                        <width>3</width>
                                    </LineStyle>
                                </Style>
                                <LineString>
                                    <tessellate>1</tessellate>
                                    <altitudeMode>clampToGround</altitudeMode>
                                    <coordinates>
                                        37.41305555555555,55.972500000000004,0 2.0783333333333336,41.29694444444444,0
                                    </coordinates>
                                </LineString>
                            </Placemark>
                                    
                            <Placemark>
                                <name>PTMSV (SBGR to LEBL)</name>
                                <Style>
                                    <LineStyle>
                                        <color>ffc9ffcc</color>
                                        <width>3</width>
                                    </LineStyle>
                                </Style>
                                <LineString>
                                    <tessellate>1</tessellate>
                                    <altitudeMode>clampToGround</altitudeMode>
                                    <coordinates>
                                        -46.47,-23.433333333333334,0 2.0783333333333336,41.29694444444444,0
                                    </coordinates>
                                </LineString>
                            </Placemark>
                                    
                            <Placemark>
                                <name>EIFJK (EFHK to LEBL)</name>
                                <Style>
                                    <LineStyle>
                                        <color>ffffc9e1</color>
                                        <width>3</width>
                                    </LineStyle>
                                </Style>
                                <LineString>
                                    <tessellate>1</tessellate>
                                    <altitudeMode>clampToGround</altitudeMode>
                                    <coordinates>
                                        24.96333333333333,60.31722222222223,0 2.0783333333333336,41.29694444444444,0
                                    </coordinates>
                                </LineString>
                            </Placemark>
                                    
                            <Placemark>
                                <name>TCJIP (LTBA to LEBL)</name>
                                <Style>
                                    <LineStyle>
                                        <color>ffc9ffcc</color>
                                        <width>3</width>
                                    </LineStyle>
                                </Style>
                                <LineString>
                                    <tessellate>1</tessellate>
                                    <altitudeMode>clampToGround</altitudeMode>
                                    <coordinates>
                                        28.81416666666667,40.976111111111116,0 2.0783333333333336,41.29694444444444,0
                                    </coordinates>
                                </LineString>
                            </Placemark>
                                    
                            <Placemark>
                                <name>TCDCF (LTFJ to LEBL)</name>
                                <Style>
                                    <LineStyle>
                                        <color>ffc9ffcc</color>
                                        <width>3</width>
                                    </LineStyle>
                                </Style>
                                <LineString>
                                    <tessellate>1</tessellate>
                                    <altitudeMode>clampToGround</altitudeMode>
                                    <coordinates>
                                        29.309166666666666,40.89833333333333,0 2.0783333333333336,41.29694444444444,0
                                    </coordinates>
                                </LineString>
                            </Placemark>
                                    
                            <Placemark>
                                <name>VPBAS (UUDD to LEBL)</name>
                                <Style>
                                    <LineStyle>
                                        <color>ffc9ffcc</color>
                                        <width>3</width>
                                    </LineStyle>
                                </Style>
                                <LineString>
                                    <tessellate>1</tessellate>
                                    <altitudeMode>clampToGround</altitudeMode>
                                    <coordinates>
                                        37.906388888888884,55.40861111111111,0 2.0783333333333336,41.29694444444444,0
                                    </coordinates>
                                </LineString>
                            </Placemark>
                                    
                            <Placemark>
                                <name>ECJFF (GCFV to LEBL)</name>
                                <Style>
                                    <LineStyle>
                                        <color>ffc9ffcc</color>
                                        <width>3</width>
                                    </LineStyle>
                                </Style>
                                <LineString>
                                    <tessellate>1</tessellate>
                                    <altitudeMode>clampToGround</altitudeMode>
                                    <coordinates>
                                        -13.863888888888889,28.452777777777776,0 2.0783333333333336,41.29694444444444,0
                                    </coordinates>
                                </LineString>
                            </Placemark>
                                    
                            <Placemark>
                                <name>LNRRG (ENGM to LEBL)</name>
                                <Style>
                                    <LineStyle>
                                        <color>ffffc9e1</color>
                                        <width>3</width>
                                    </LineStyle>
                                </Style>
                                <LineString>
                                    <tessellate>1</tessellate>
                                    <altitudeMode>clampToGround</altitudeMode>
                                    <coordinates>
                                        11.08388888888889,60.20277777777778,0 2.0783333333333336,41.29694444444444,0
                                    </coordinates>
                                </LineString>
                            </Placemark>
                                    
                            <Placemark>
                                <name>ECMMH (GCXO to LEBL)</name>
                                <Style>
                                    <LineStyle>
                                        <color>ffc9ffcc</color>
                                        <width>3</width>
                                    </LineStyle>
                                </Style>
                                <LineString>
                                    <tessellate>1</tessellate>
                                    <altitudeMode>clampToGround</altitudeMode>
                                    <coordinates>
                                        -16.341666666666665,28.482777777777777,0 2.0783333333333336,41.29694444444444,0
                                    </coordinates>
                                </LineString>
                            </Placemark>
                                    
                            <Placemark>
                                <name>EIDHO (ESKN to LEBL)</name>
                                <Style>
                                    <LineStyle>
                                        <color>ffffc9e1</color>
                                        <width>3</width>
                                    </LineStyle>
                                </Style>
                                <LineString>
                                    <tessellate>1</tessellate>
                                    <altitudeMode>clampToGround</altitudeMode>
                                    <coordinates>
                                        16.90361111111111,58.78861111111111,0 2.0783333333333336,41.29694444444444,0
                                    </coordinates>
                                </LineString>
                            </Placemark>
                                    
                            <Placemark>
                                <name>HALWY (EVRA to LEBL)</name>
                                <Style>
                                    <LineStyle>
                                        <color>ffffc9e1</color>
                                        <width>3</width>
                                    </LineStyle>
                                </Style>
                                <LineString>
                                    <tessellate>1</tessellate>
                                    <altitudeMode>clampToGround</altitudeMode>
                                    <coordinates>
                                        23.97111111111111,56.92361111111111,0 2.0783333333333336,41.29694444444444,0
                                    </coordinates>
                                </LineString>
                            </Placemark>
                                    
                            <Placemark>
                                <name>LNDYP (ESSA to LEBL)</name>
                                <Style>
                                    <LineStyle>
                                        <color>ffffc9e1</color>
                                        <width>3</width>
                                    </LineStyle>
                                </Style>
                                <LineString>
                                    <tessellate>1</tessellate>
                                    <altitudeMode>clampToGround</altitudeMode>
                                    <coordinates>
                                        17.91861111111111,59.651944444444446,0 2.0783333333333336,41.29694444444444,0
                                    </coordinates>
                                </LineString>
                            </Placemark>
                                    
                            <Placemark>
                                <name>ECMFB (ENGM to LEBL)</name>
                                <Style>
                                    <LineStyle>
                                        <color>ffffc9e1</color>
                                        <width>3</width>
                                    </LineStyle>
                                </Style>
                                <LineString>
                                    <tessellate>1</tessellate>
                                    <altitudeMode>clampToGround</altitudeMode>
                                    <coordinates>
                                        11.08388888888889,60.20277777777778,0 2.0783333333333336,41.29694444444444,0
                                    </coordinates>
                                </LineString>
                            </Placemark>
                                    
                            <Placemark>
                                <name>ECMMU (GCLP to LEBL)</name>
                                <Style>
                                    <LineStyle>
                                        <color>ffc9ffcc</color>
                                        <width>3</width>
                                    </LineStyle>
                                </Style>
                                <LineString>
                                    <tessellate>1</tessellate>
                                    <altitudeMode>clampToGround</altitudeMode>
                                    <coordinates>
                                        -15.386666666666667,27.931944444444447,0 2.0783333333333336,41.29694444444444,0
                                    </coordinates>
                                </LineString>
                            </Placemark>
                                    
                            <Placemark>
                                <name>ECLUT (GCXO to LEBL)</name>
                                <Style>
                                    <LineStyle>
                                        <color>ffc9ffcc</color>
                                        <width>3</width>
                                    </LineStyle>
                                </Style>
                                <LineString>
                                    <tessellate>1</tessellate>
                                    <altitudeMode>clampToGround</altitudeMode>
                                    <coordinates>
                                        -16.341666666666665,28.482777777777777,0 2.0783333333333336,41.29694444444444,0
                                    </coordinates>
                                </LineString>
                            </Placemark>
                                    
                            <Placemark>
                                <name>A7ACD (OTHH to LEBL)</name>
                                <Style>
                                    <LineStyle>
                                        <color>ffc9ffcc</color>
                                        <width>3</width>
                                    </LineStyle>
                                </Style>
                                <LineString>
                                    <tessellate>1</tessellate>
                                    <altitudeMode>clampToGround</altitudeMode>
                                    <coordinates>
                                        51.608333333333334,25.274444444444445,0 2.0783333333333336,41.29694444444444,0
                                    </coordinates>
                                </LineString>
                            </Placemark>
                                    
                            <Placemark>
                                <name>OHLZB (EFHK to LEBL)</name>
                                <Style>
                                    <LineStyle>
                                        <color>ffffc9e1</color>
                                        <width>3</width>
                                    </LineStyle>
                                </Style>
                                <LineString>
                                    <tessellate>1</tessellate>
                                    <altitudeMode>clampToGround</altitudeMode>
                                    <coordinates>
                                        24.96333333333333,60.31722222222223,0 2.0783333333333336,41.29694444444444,0
                                    </coordinates>
                                </LineString>
                            </Placemark>
                                    
                            <Placemark>
                                <name>A6EEH (OMDB to LEBL)</name>
                                <Style>
                                    <LineStyle>
                                        <color>ffc9ffcc</color>
                                        <width>3</width>
                                    </LineStyle>
                                </Style>
                                <LineString>
                                    <tessellate>1</tessellate>
                                    <altitudeMode>clampToGround</altitudeMode>
                                    <coordinates>
                                        55.36,25.249166666666667,0 2.0783333333333336,41.29694444444444,0
                                    </coordinates>
                                </LineString>
                            </Placemark>
                                    
                            <Placemark>
                                <name>CSTRN (ESSA to LEBL)</name>
                                <Style>
                                    <LineStyle>
                                        <color>ffffc9e1</color>
                                        <width>3</width>
                                    </LineStyle>
                                </Style>
                                <LineString>
                                    <tessellate>1</tessellate>
                                    <altitudeMode>clampToGround</altitudeMode>
                                    <coordinates>
                                        17.91861111111111,59.651944444444446,0 2.0783333333333336,41.29694444444444,0
                                    </coordinates>
                                </LineString>
                            </Placemark>
                                    
                            <Placemark>
                                <name>EIDLH (GCLP to LEBL)</name>
                                <Style>
                                    <LineStyle>
                                        <color>ffc9ffcc</color>
                                        <width>3</width>
                                    </LineStyle>
                                </Style>
                                <LineString>
                                    <tessellate>1</tessellate>
                                    <altitudeMode>clampToGround</altitudeMode>
                                    <coordinates>
                                        -15.386666666666667,27.931944444444447,0 2.0783333333333336,41.29694444444444,0
                                    </coordinates>
                                </LineString>
                            </Placemark>
                                    
                            <Placemark>
                                <name>N900AL (HTDA to LEBL)</name>
                                <Style>
                                    <LineStyle>
                                        <color>ffc9ffcc</color>
                                        <width>3</width>
                                    </LineStyle>
                                </Style>
                                <LineString>
                                    <tessellate>1</tessellate>
                                    <altitudeMode>clampToGround</altitudeMode>
                                    <coordinates>
                                        39.20333333333333,-6.875555555555556,0 2.0783333333333336,41.29694444444444,0
                                    </coordinates>
                                </LineString>
                            </Placemark>
                                    
                            <Placemark>
                                <name>ECMKT (EFHK to LEBL)</name>
                                <Style>
                                    <LineStyle>
                                        <color>ffffc9e1</color>
                                        <width>3</width>
                                    </LineStyle>
                                </Style>
                                <LineString>
                                    <tessellate>1</tessellate>
                                    <altitudeMode>clampToGround</altitudeMode>
                                    <coordinates>
                                        24.96333333333333,60.31722222222223,0 2.0783333333333336,41.29694444444444,0
                                    </coordinates>
                                </LineString>
                            </Placemark>
                                    
                            <Placemark>
                                <name>EIFHS (ENGM to LEBL)</name>
                                <Style>
                                    <LineStyle>
                                        <color>ffffc9e1</color>
                                        <width>3</width>
                                    </LineStyle>
                                </Style>
                                <LineString>
                                    <tessellate>1</tessellate>
                                    <altitudeMode>clampToGround</altitudeMode>
                                    <coordinates>
                                        11.08388888888889,60.20277777777778,0 2.0783333333333336,41.29694444444444,0
                                    </coordinates>
                                </LineString>
                            </Placemark>
                                    
                            <Placemark>
                                <name>TFBRO (BIKF to LEBL)</name>
                                <Style>
                                    <LineStyle>
                                        <color>ffffc9e1</color>
                                        <width>3</width>
                                    </LineStyle>
                                </Style>
                                <LineString>
                                    <tessellate>1</tessellate>
                                    <altitudeMode>clampToGround</altitudeMode>
                                    <coordinates>
                                        -22.605555555555558,63.985,0 2.0783333333333336,41.29694444444444,0
                                    </coordinates>
                                </LineString>
                            </Placemark>
                                    
                            <Placemark>
                                <name>ERAXP (LUKK to LEBL)</name>
                                <Style>
                                    <LineStyle>
                                        <color>ffc9ffcc</color>
                                        <width>3</width>
                                    </LineStyle>
                                </Style>
                                <LineString>
                                    <tessellate>1</tessellate>
                                    <altitudeMode>clampToGround</altitudeMode>
                                    <coordinates>
                                        28.930833333333336,46.92777777777778,0 2.0783333333333336,41.29694444444444,0
                                    </coordinates>
                                </LineString>
                            </Placemark>
                                    
                            <Placemark>
                                <name>TCJRF (LTBA to LEBL)</name>
                                <Style>
                                    <LineStyle>
                                        <color>ffc9ffcc</color>
                                        <width>3</width>
                                    </LineStyle>
                                </Style>
                                <LineString>
                                    <tessellate>1</tessellate>
                                    <altitudeMode>clampToGround</altitudeMode>
                                    <coordinates>
                                        28.81416666666667,40.976111111111116,0 2.0783333333333336,41.29694444444444,0
                                    </coordinates>
                                </LineString>
                            </Placemark>
                                    
                            <Placemark>
                                <name>EIFJN (ENGM to LEBL)</name>
                                <Style>
                                    <LineStyle>
                                        <color>ffffc9e1</color>
                                        <width>3</width>
                                    </LineStyle>
                                </Style>
                                <LineString>
                                    <tessellate>1</tessellate>
                                    <altitudeMode>clampToGround</altitudeMode>
                                    <coordinates>
                                        11.08388888888889,60.20277777777778,0 2.0783333333333336,41.29694444444444,0
                                    </coordinates>
                                </LineString>
                            </Placemark>
                                    
                            <Placemark>
                                <name>VPBZA (UUEE to LEBL)</name>
                                <Style>
                                    <LineStyle>
                                        <color>ffc9ffcc</color>
                                        <width>3</width>
                                    </LineStyle>
                                </Style>
                                <LineString>
                                    <tessellate>1</tessellate>
                                    <altitudeMode>clampToGround</altitudeMode>
                                    <coordinates>
                                        37.41305555555555,55.972500000000004,0 2.0783333333333336,41.29694444444444,0
                                    </coordinates>
                                </LineString>
                            </Placemark>
                                    
                            <Placemark>
                                <name>VPBRI (UUDD to LEBL)</name>
                                <Style>
                                    <LineStyle>
                                        <color>ffc9ffcc</color>
                                        <width>3</width>
                                    </LineStyle>
                                </Style>
                                <LineString>
                                    <tessellate>1</tessellate>
                                    <altitudeMode>clampToGround</altitudeMode>
                                    <coordinates>
                                        37.906388888888884,55.40861111111111,0 2.0783333333333336,41.29694444444444,0
                                    </coordinates>
                                </LineString>
                            </Placemark>
                                    
                            <Placemark>
                                <name>OYRUP (GCLP to LEBL)</name>
                                <Style>
                                    <LineStyle>
                                        <color>ffc9ffcc</color>
                                        <width>3</width>
                                    </LineStyle>
                                </Style>
                                <LineString>
                                    <tessellate>1</tessellate>
                                    <altitudeMode>clampToGround</altitudeMode>
                                    <coordinates>
                                        -15.386666666666667,27.931944444444447,0 2.0783333333333336,41.29694444444444,0
                                    </coordinates>
                                </LineString>
                            </Placemark>
                                    
                            <Placemark>
                                <name>YLPSH (BIKF to LEBL)</name>
                                <Style>
                                    <LineStyle>
                                        <color>ffffc9e1</color>
                                        <width>3</width>
                                    </LineStyle>
                                </Style>
                                <LineString>
                                    <tessellate>1</tessellate>
                                    <altitudeMode>clampToGround</altitudeMode>
                                    <coordinates>
                                        -22.605555555555558,63.985,0 2.0783333333333336,41.29694444444444,0
                                    </coordinates>
                                </LineString>
                            </Placemark>
                                </Document>
</kml>